214P/LINEAR,e,15.1857,348.2215,190.1450,3.617799,0.1432312,0.48589789,81.9101,04/20.0/2024,2000,g 13.0,4.0
# From MPEC 2024-F91
215P/NEAT,e,10.5765,56.6732,262.4035,4.333577,0.1092532,0.16540321,176.4674,04/20.0/2024,2000,g 11.0,4.0
# From MPEC 2024-GJ3
216P/LINEAR,e,9.0629,359.7986,151.7345,3.858406,0.1300446,0.44871650,13.5404,04/20.0/2024,2000,g 13.0,4.0
# From MPEC 2023-J29
217P/LINEAR,e,12.8635,125.3819,247.0120,3.946495,0.1257149,0.68923904,309.7265,04/20.0/2024,2000,g 12.0,4.0
# From MPEC 2022-K19
218P/LINEAR,e,2.7269,175.6864,59.9087,3.079724,0.1823629,0.62752263,235.3049,04/20.0/2024,2000,g 16.0,4.0
# From MPEC 2024-F91
219P/LINEAR,e,11.5400,230.9531,107.6325,3.645264,0.1416154,0.35399641,9.3684,04/20.0/2024,2000,g 11.0,4.0
# From MPEC 2024-A43
220P/McNaught,e,8.1237,150.1041,180.6123,3.118994,0.1789296,0.50075192,219.5417,04/20.0/2024,2000,g 15.0,4.0
# From MPEC 2022-UY9
221P/LINEAR,e,11.5175,229.5958,39.4612,3.436316,0.1547264,0.50070872,131.5859,04/20.0/2024,2000,g 14.5,4.0
# From MPC 92277
222P/LINEAR,e,5.0961,6.7845,346.2844,2.897535,0.1998301,0.71468876,355.4251,04/20.0/2024,2000,g 20.0,4.0
# From MPEC 2023-A50
223P/Skiff,e,27.0119,346.7407,37.9353,4.158275,0.1162343,0.41653090,221.6521,04/20.0/2024,2000,g 12.0,4.0
# From MPEC 2023-BF4
224P/LINEAR-NEAT,e,13.3055,40.0382,16.7525,3.445516,0.1541071,0.40586701,87.5115,04/20.0/2024,2000,g 15.5,4.0
# From MPEC 2024-F91
225P/LINEAR,e,21.3660,14.2018,3.9002,3.647428,0.1414894,0.63844013,36.2186,04/20.0/2024,2000,g 18.0,4.0
# From MPEC 2024-GJ3
226P/Pigott-LINEAR-Kowalski,e,44.0459,54.0121,341.0474,3.767306,0.1347900,0.52920071,15.4762,04/20.0/2024,2000,g 12.5,4.0
# From MPEC 2024-GJ3
227P/Catalina-LINEAR,e,7.5086,36.8082,105.5705,3.435988,0.1547486,0.52746660,6.6154,04/20.0/2024,2000,g 16.5,2.0
# From MPEC 2022-HC2
228P/LINEAR,e,7.9134,30.9752,114.7383,4.164429,0.1159767,0.17680984,174.4457,04/20.0/2024,2000,g 14.1,4.0
# From MPC106349
229P/Gibbs,e,26.0998,157.9345,224.1237,3.923879,0.1268033,0.37796549,319.4637,04/20.0/2024,2000,g 13.0,4.0
# From MPEC 2023-KD6
230P/LINEAR,e,15.4690,106.9469,313.5265,3.454149,0.1535297,0.54566601,117.0593,04/20.0/2024,2000,g 13.0,4.0
# From MPEC 2023-SQ0
231P/LINEAR-NEAT,e,12.2744,132.8640,44.0543,4.054652,0.1207185,0.24074176,214.7396,04/20.0/2024,2000,g 14.5,2.0
# From MPC112394
232P/Hill,e,14.6442,56.0289,53.2185,4.472322,0.1042088,0.33560355,191.7195,04/20.0/2024,2000,g 11.5,4.0
# From MPEC 2021-N06
233P/La Sagra,e,11.2889,74.9011,26.9862,3.027300,0.1871203,0.41273802,242.4520,04/20.0/2024,2000,g 15.0,4.0
# From MPEC 2024-DC6
234P/LINEAR,e,11.5356,179.5668,357.4198,3.795766,0.1332769,0.25683277,335.1333,04/20.0/2024,2000,g 12.0,4.0
# From MPC110497
235P/LINEAR,e,9.6688,204.0119,347.8464,3.507220,0.1500581,0.40799014,264.9002,04/20.0/2024,2000,g 12.0,4.0
# From MPEC 2023-J29
236P/LINEAR,e,16.3556,245.5693,119.3958,3.725839,0.1370465,0.50930517,320.2895,04/20.0/2024,2000,g 14.0,4.0
# From MPEC 2024-DC6
237P/LINEAR,e,14.0170,245.3546,25.3100,3.511035,0.1498136,0.43387923,51.1235,04/20.0/2024,2000,g 14.5,2.0
# From MPEC 2023-UR6
238P/Read,e,1.2640,51.6339,324.2477,3.166065,0.1749542,0.25114474,119.7756,04/20.0/2024,2000,g 14.5,4.0
# From MPEC 2021-F20
239P/LINEAR,e,11.3079,255.9471,220.3433,4.465606,0.1044440,0.63104958,201.2518,04/20.0/2024,2000,g 17.5,2.0
# From MPEC 2023-CD7
240P/NEAT,e,23.5370,74.9160,352.0105,3.861977,0.1298642,0.45030355,280.9264,04/20.0/2024,2000,g 11.0,4.0
# From MPEC 2022-J42
241P/LINEAR,e,21.0956,305.4639,111.5195,4.924975,0.0901775,0.61045322,90.0694,04/20.0/2024,2000,g 13.5,4.0
# From MPEC 2024-BE0
242P/Spahr,e,32.4588,180.3602,244.8673,5.529335,0.0758044,0.28172421,341.2528,04/20.0/2024,2000,g  8.0,4.0
# From MPEC 2022-K19
243P/NEAT,e,7.6435,87.6492,283.6600,3.828530,0.1315697,0.36056959,271.0209,04/20.0/2024,2000,g 12.5,4.0
# From MPEC 2024-GJ3
244P/Scotti,e,2.2587,354.0081,93.2846,4.900581,0.0908516,0.19979538,47.0921,04/20.0/2024,2000,g  9.0,4.0
# From MPEC 2022-CN4
245P/WISE,e,21.1764,316.8899,316.5578,4.050117,0.1209213,0.45568776,274.0995,04/20.0/2024,2000,g 14.0,4.0
# From MPEC 2024-C04
246P/NEAT,e,17.1529,74.8822,182.8408,4.094839,0.1189457,0.27995909,136.8053,04/20.0/2024,2000,g 10.5,4.0
# From MPEC 2021-F20
247P/LINEAR,e,13.6590,54.0095,47.4407,3.965751,0.1248004,0.62531229,245.3019,04/20.0/2024,2000,g 16.5,2.0
# From MPC 75730
248P/Gibbs,e,6.3513,207.8172,209.9290,5.985500,0.0673059,0.63935424,325.4817,04/20.0/2024,2000,g 14.0,4.0
# From MPEC 2022-YN2
249P/LINEAR,e,8.3854,239.0449,65.7518,2.764492,0.2144278,0.81937301,298.3108,04/20.0/2024,2000,g 15.5,4.0
# From MPC110497
250P/Larson,e,13.1563,73.2881,45.9207,3.775381,0.1343578,0.39872013,307.2981,04/20.0/2024,2000,g 14.5,4.0
# From MPC104795
251P/LINEAR,e,23.3870,219.3228,31.2385,3.513659,0.1496459,0.50442410,9.9921,04/20.0/2024,2000,g 16.5,2.0
# From MPEC 2021-S45
252P/LINEAR,e,10.4160,190.9077,343.3859,3.051247,0.1849217,0.67082237,187.6304,04/20.0/2024,2000,g 17.5,4.0
# From MPEC 2020-FB5
253P/PANSTARRS,e,4.9454,146.9088,230.7621,3.462221,0.1529931,0.41457133,331.8549,04/20.0/2024,2000,g 14.5,4.0
# From MPEC 2024-EF7
254P/McNaught,e,32.5495,129.1872,219.7393,4.618373,0.0993049,0.31907170,128.9009,04/20.0/2024,2000,g 11.0,4.0
# From NK 2214
255P/Levy,e,13.4007,275.6379,186.0327,2.942449,0.1952723,0.71185640,115.2707,04/20.0/2024,2000,g  9.0,4.0
# From MPEC 2023_O39
256P/LINEAR,e,27.6236,81.3279,124.1418,4.637610,0.0986876,0.41786244,39.9634,04/20.0/2024,2000,g 14.0,2.0
# From MPEC 2023-A50
257P/Catalina,e,20.2194,207.7158,117.7825,3.766260,0.1348462,0.42927043,177.7594,04/20.0/2024,2000,g 11.5,4.0
# From MPEC 2021-U31
258P/PANSTARRS,e,6.7496,126.2321,25.6100,4.391104,0.1071133,0.20894580,150.2662,04/20.0/2024,2000,g 13.0,4.0
# From MPC106349
259P/Garradd,e,15.8985,51.3711,257.5424,2.728803,0.2186481,0.33881640,175.3836,04/20.0/2024,2000,g 15.5,4.0
# From MPEC 2022-O01
260P/McNaught,e,15.0497,349.3353,18.4714,3.623441,0.1428967,0.60910854,240.4361,04/20.0/2024,2000,g 13.5,4.0
# From MPEC 2021-J28
261P/Larson,e,6.0722,291.0639,67.3459,3.490344,0.1511478,0.42306600,266.8568,04/20.0/2024,2000,g 14.0,4.0
# From MPC 82322
262P/McNaught-Russell,e,29.2767,217.8887,171.0610,6.869774,0.0547382,0.81633993,227.0750,04/20.0/2024,2000,g 13.5,4.0
# From MPEC 2023_O39
263P/Gibbs,e,11.5241,105.5015,35.0320,3.041404,0.1858202,0.59370370,82.7607,04/20.0/2024,2000,g 18.0,4.0
# From MPC114608
264P/Larsen,e,25.6514,219.5805,341.8757,3.998301,0.1232795,0.34703138,229.5994,04/20.0/2024,2000,g 13.0,4.0
# From MPC 79870
265P/LINEAR,e,14.3541,342.9479,33.5173,4.259044,0.1121336,0.64730491,130.7243,04/20.0/2024,2000,g 14.5,4.0
# From MPEC 2021-F20
266P/Christensen,e,3.4273,4.9648,97.7037,3.529561,0.1486356,0.34060240,217.1082,04/20.0/2024,2000,g 14.7,4.0
# From MPC114608
267P/LONEOS,e,6.1428,228.5992,114.2342,3.208959,0.1714580,0.61421978,359.1748,04/20.0/2024,2000,g 19.5,4.0
# From MPC 92277
268P/Bernardi,e,15.6330,124.7500,359.9612,4.635076,0.0987686,0.47289531,336.1298,04/20.0/2024,2000,g 14.0,4.0
# From MPEC 2023-J29
269P/Jedicke,e,7.0845,241.7723,225.6650,7.062437,0.0525137,0.43281645,183.0371,04/20.0/2024,2000,g 10.0,4.0
# From MPC 88332
270P/Gehrels,e,2.9252,223.0386,209.8352,6.653042,0.0574346,0.46995850,227.3838,04/20.0/2024,2000,g  8.0,4.0
# From MPC 92277
271P/van Houten-Lemmon,e,6.8704,9.3240,36.5086,7.032914,0.0528447,0.39615962,207.2708,04/20.0/2024,2000,g 11.0,4.0
# From MPEC 2023-D41
272P/NEAT,e,18.0766,109.4454,27.8833,4.461849,0.1045759,0.45515459,67.2335,04/20.0/2024,2000,g 16.0,2.0
# From MPC 82723
273P/Pons-Gambart,e,136.5615,320.4051,20.2093,31.99193,0.0054468,0.97439243,0.0000,12/22.1043/2012,2000,g 11.5,4.0
# From MPEC 2024-GJ3
274P/Tombaugh-Tenagra,e,15.8196,81.3185,38.4721,4.377966,0.1075959,0.43994467,79.8748,04/20.0/2024,2000,g 13.0,4.0
# From MPC 81862
275P/Hermann,e,21.2584,348.6936,173.9229,5.789062,0.0707606,0.71336267,294.7967,04/20.0/2024,2000,g 17.0,4.0
# From MPEC 2024-BE0
276P/Vorobjov,e,14.8116,211.3407,199.3281,5.337079,0.0799372,0.26952851,341.1902,04/20.0/2024,2000,g 11.5,4.0
# From MPEC 2021-F20
277P/LINEAR,e,16.7877,276.2702,152.3916,3.853542,0.1302908,0.50644647,157.1287,04/20.0/2024,2000,g 15.1,4.0
# From MPEC 2021-S45
278P/McNaught,e,6.6745,15.1509,237.5399,3.670256,0.1401714,0.44072263,184.2512,04/20.0/2024,2000,g 14.0,4.0
# From MPEC 2024-A43
279P/LaSagra,e,5.0492,346.1515,5.7655,3.572876,0.1459409,0.39932447,53.5333,04/20.0/2024,2000,g 14.0,4.0
# From MPEC 2023-J95
280P/Larsen,e,11.7733,131.3754,104.7161,4.527546,0.1023080,0.41690485,26.5375,04/20.0/2024,2000,g 12.5,4.0
# From MPEC 2023-D41
281P/MOSS,e,4.7176,87.1696,26.7749,4.882549,0.0913554,0.17360609,40.4315,04/20.0/2024,2000,g 11.0,4.0
# From MPC133426
282P/,e,5.8122,217.6158,9.2318,4.236916,0.1130132,0.18769079,102.7482,04/20.0/2024,2000,g 13.5,2.0
# From MPEC 2022-K19
283P/Spacewatch,e,14.4601,161.1212,22.1708,4.133426,0.1172840,0.48444070,112.0414,04/20.0/2024,2000,g 16.0,2.0
# From MPEC 2024-D33
284P/McNaught,e,11.8573,144.2689,202.4739,3.677562,0.1397540,0.37485687,132.8705,04/20.0/2024,2000,g 13.0,4.0
# From MPEC 2023-B57
285P/LINEAR,e,25.0372,185.5041,178.3895,4.506052,0.1030409,0.61843008,47.7957,04/20.0/2024,2000,g 15.0,4.0
# From MPEC 2024-BE0
286P/Christensen,e,17.1029,283.6444,24.7063,4.102120,0.1186292,0.42700369,84.1118,04/20.0/2024,2000,g 14.0,4.0
# From MPEC 2024-GJ3
287P/Christensen,e,16.3158,139.0198,189.3047,4.168318,0.1158145,0.27190388,33.3722,04/20.0/2024,2000,g 13.5,4.0
# From MPC133426
288P/,e,3.2383,83.1064,280.2908,3.049134,0.1851140,0.20014323,144.4615,04/20.0/2024,2000,g 16.0,2.0
# From MPEC 2023-HD1
289P/Blanpain,e,5.9003,68.8926,9.8605,3.044389,0.1855470,0.68640726,293.3273,04/20.0/2024,2000,g 19.7,4.0
# From MPC 95214
290P/Jager,e,20.0498,302.6787,181.8223,6.215973,0.0635976,0.62785009,237.9104,04/20.0/2024,2000,g 10.5,4.0
# From MPEC 2024-EF7
291P/NEAT,e,6.3098,237.6601,173.5109,4.533717,0.1020992,0.43413931,35.9363,04/20.0/2024,2000,g 13.0,4.0
# From MPEC 2022-K19
